[{"OBJECT_NAME":"OBJECT F","OBJECT_ID":"2022-023F","EPOCH":"2026-03-09T23:55:35.397408","MEAN_MOTION":15.18257694,"ECCENTRICITY":0.01194645,"INCLINATION":63.4547,"RA_OF_ASC_NODE":250.628,"ARG_OF_PERICENTER":343.8947,"MEAN_ANOMALY":15.838,"EPHEMERIS_TYPE":0,"CLASSIFICATION_TYPE":"U","NORAD_CAT_ID":51951,"ELEMENT_SET_NO":999,"REV_AT_EPOCH":22265,"BSTAR":0.00028900174,"MEAN_MOTION_DOT":6.929e-5,"MEAN_MOTION_DDOT":0},{"OBJECT_NAME":"STARLINK-4018","OBJECT_ID":"2022-053AT","EPOCH":"2026-03-09T10:50:19.831488","MEAN_MOTION":15.0883544,"ECCENTRICITY":0.0001339,"INCLINATION":53.2174,"RA_OF_ASC_NODE":150.1934,"ARG_OF_PERICENTER":72.6851,"MEAN_ANOMALY":287.4287,"EPHEMERIS_TYPE":0,"CLASSIFICATION_TYPE":"U","NORAD_CAT_ID":52697,"ELEMENT_SET_NO":999,"REV_AT_EPOCH":21105,"BSTAR":4.6704139e-5,"MEAN_MOTION_DOT":4.55e-6,"MEAN_MOTION_DDOT":0}]
